BEIDOU-2 IGSO-1         
1 36828U 10036A   26129.56207134 -.00000068  00000+0  00000+0 0  9998
2 36828  54.2946 163.3091 0058711 224.6236 148.8612  1.00281802 57711
BEIDOU-2 G4             
1 37210U 10057A   26130.78568368 -.00000100  00000+0  00000+0 0  9999
2 37210   3.5540  69.1501 0005524 212.8637  29.3914  1.00273119 56912
BEIDOU-2 IGSO-2         
1 37256U 10068A   26130.84100878 -.00000212  00000+0  00000+0 0  9990
2 37256  47.6210 272.2953 0054445 211.9481 153.0457  1.00295908 56429
BEIDOU-2 IGSO-3         
1 37384U 11013A   26130.65425413 -.00000191  00000+0  00000+0 0  9993
2 37384  62.3586  40.5091 0034053 186.6886 345.0519  1.00277511 55285
BEIDOU-2 IGSO-4         
1 37763U 11038A   26130.55877685  .00000050  00000+0  00000+0 0  9995
2 37763  54.6253 166.0014 0157891 233.2390 121.6372  1.00292421 54264
BEIDOU-2 IGSO-5         
1 37948U 11073A   26130.86101560 -.00000161  00000+0  00000+0 0  9999
2 37948  47.7496 272.0069 0111620 220.7014 138.6995  1.00257393 52764
BEIDOU-2 G5             
1 38091U 12008A   26130.87937994  .00000069  00000+0  00000+0 0  9993
2 38091   3.4806  69.9045 0011251 272.1454 261.8798  1.00271319 51991
BEIDOU-2 M3             
1 38250U 12018A   26128.45381045 -.00000038  00000+0  00000+0 0  9999
2 38250  55.7928 306.2139 0019668 277.1817  82.5892  1.86230179 95200
BEIDOU-2 M4             
1 38251U 12018B   26128.92300840 -.00000036  00000+0  00000+0 0  9994
2 38251  55.6931 305.4151 0010883 282.3733  77.4996  1.86229854 95211
BEIDOU-2 M6             
1 38775U 12050B   26130.24374730 -.00000020  00000+0  00000+0 0  9991
2 38775  56.5127  64.1487 0014363 350.9145   9.0489  1.86230951 92604
BEIDOU-2 G6             
1 38953U 12059A   26130.84191485 -.00000164  00000+0  00000+0 0  9997
2 38953   4.3269  73.9076 0010762 320.1623 221.7308  1.00272951 49530
BEIDOU-3S IGSO-1S       
1 40549U 15019A   26130.80379095 -.00000164  00000+0  00000+0 0  9991
2 40549  49.2679 295.9104 0037602 190.3051 125.9979  1.00258713 40696
BEIDOU-3S M2S           
1 40748U 15037A   26128.58906300 -.00000037  00000+0  00000+0 0  9998
2 40748  54.9079 303.4092 0007455 268.2126  91.6939  1.86232348 73383
BEIDOU-3S M1S           
1 40749U 15037B   26130.41196722 -.00000036  00000+0  00000+0 0  9992
2 40749  54.9021 303.3340 0004173  55.5065 304.5270  1.86254910 73427
BEIDOU-3S IGSO-2S       
1 40938U 15053A   26130.78671169 -.00000159  00000+0  00000+0 0  9999
2 40938  49.2828 259.2274 0063924 190.8859 158.2777  1.00268309 38977
BEIDOU-2 IGSO-6         
1 41434U 16021A   26130.81093911 -.00000161  00000+0  00000+0 0  9997
2 41434  60.1758  38.4133 0057602 232.5923 344.2448  1.00266275 37102
BEIDOU-2 G7             
1 41586U 16037A   26130.86225458 -.00000342  00000+0  00000+0 0  9991
2 41586   1.6275  68.9546 0007721 357.5116 223.1966  1.00271661  6515
BEIDOU-3 M1             
1 43001U 17069A   26129.47217497 -.00000019  00000+0  00000+0 0  9991
2 43001  56.6598  64.3599 0011778 319.4965  40.4056  1.86231471 57886
BEIDOU-3 M2             
1 43002U 17069B   26128.33767399 -.00000020  00000+0  00000+0 0  9999
2 43002  56.6766  64.4251 0022120  73.1957 287.0348  1.86210859 57855
BEIDOU-3 M7             
1 43107U 18003A   26129.68939610 -.00000037  00000+0  00000+0 0  9998
2 43107  54.3635 303.6569 0005256  84.2637 275.7902  1.86228381 56634
BEIDOU-3 M8             
1 43108U 18003B   26129.63476517 -.00000037  00000+0  00000+0 0  9996
2 43108  54.3563 303.6407 0002143 280.1514  79.8182  1.86231293 56649
BEIDOU-3 M4             
1 43207U 18018A   26129.54045211 -.00000019  00000+0  00000+0 0  9995
2 43207  56.6190  64.4229 0007757   5.3490 354.6487  1.86231430 56027
BEIDOU-3 M3             
1 43208U 18018B   26129.06995149 -.00000019  00000+0  00000+0 0  9997
2 43208  56.6178  64.4424 0009729 331.7782  28.1584  1.86231351 56014
BEIDOU-3 M9             
1 43245U 18029A   26130.36150443 -.00000036  00000+0  00000+0 0  9994
2 43245  54.2302 301.2716 0000809 101.4164 258.5844  1.86228392 55197
BEIDOU-3 M10            
1 43246U 18029B   26129.22214498 -.00000037  00000+0  00000+0 0  9990
2 43246  54.2281 301.3374 0004700  36.2915 323.7314  1.86229463 55151
BEIDOU-2 IGSO-7         
1 43539U 18057A   26130.51871762 -.00000011  00000+0  00000+0 0  9995
2 43539  55.1875 163.3876 0104003 237.7354 126.1724  1.00262765 28754
BEIDOU-3 M5             
1 43581U 18062A   26129.98330225  .00000051  00000+0  00000+0 0  9994
2 43581  54.0835 183.6033 0004791 288.1642  71.8604  1.86228980 52922
BEIDOU-3 M6             
1 43582U 18062B   26129.30962619  .00000044  00000+0  00000+0 0  9991
2 43582  54.0831 183.6153 0004808  18.9796 341.1148  1.86227992 52917
BEIDOU-3 M12            
1 43602U 18067A   26129.24802271  .00000046  00000+0  00000+0 0  9991
2 43602  54.1783 182.3610 0007840  32.7480 327.3771  1.86227965 52394
BEIDOU-3 M11            
1 43603U 18067B   26130.45689292  .00000059  00000+0  00000+0 0  9997
2 43603  54.1758 182.2838 0004443  18.1454 341.9481  1.86227411 52445
BEIDOU-3 M13            
1 43622U 18072A   26129.33804645 -.00000020  00000+0  00000+0 0  9999
2 43622  56.5922  63.9411 0008454 320.9117  39.0173  1.86231535 51931
